{"fetched_at":"2026-03-30T06:02:59Z","count":15439,"tles":[{"name":"STARLINK-32209","line1":"1 60590U 24150H   26087.63686803  .00000773  00000+0  38219-4 0  9998","line2":"2 60590  53.1613 218.9178 0001280  80.9381 279.1765 15.30192580 90940","category":"Starlink"}]}